COSMOS 2425 (716)       
1 29670U 06062A   19031.26563472 -.00000002  00000-0  10000-3 0  9994
2 29670  65.1694 284.8232 0022941 346.8272 101.0770  2.13104452 94175
COSMOS 2426 (717)       
1 29671U 06062B   19030.64023528 -.00000009  00000-0  10000-3 0  9996
2 29671  65.1869 284.9480 0016360 164.7907  17.5182  2.13103124 94168
COSMOS 2433 (720)       
1 32275U 07052A   19030.64658275 -.00000023  00000-0  10000-3 0  9999
2 32275  65.7934  45.7383 0005406 264.0090 259.4496  2.13104507 87671
COSMOS 2432 (719)       
1 32276U 07052B   19030.56666666 -.00000023  00000-0  10000-3 0  9994
2 32276  65.8057  45.8223 0012205 321.2494  92.2856  2.13103782 87679
COSMOS 2434 (721)       
1 32393U 07065A   19031.26045373  .00000000  00000-0  00000+0 0  9991
2 32393  64.7850 283.6911 0003584  85.6822  76.2785  2.13102959 86396
COSMOS 2436 (723)       
1 32395U 07065C   19031.45049477  .00000002  00000-0  10000-3 0  9990
2 32395  64.7926 283.7372 0016990 359.9607 359.4034  2.13104252 86321
COSMOS 2456 (730)       
1 36111U 09070A   19030.68069964  .00000001  00000-0  00000-0 0  9990
2 36111  64.1944 163.3260 0003082 342.9012 267.1269  2.13102875 71041
COSMOS 2457 (733)       
1 36112U 09070B   19030.58190275  .00000002  00000-0  00000+0 0  9990
2 36112  64.1765 163.2347 0006451 151.8836 148.0832  2.13101499 71046
COSMOS 2458 (734)       
1 36113U 09070C   19031.19204954 -.00000005  00000-0  10000-3 0  9998
2 36113  64.1827 163.2278 0002986  50.9422  37.7110  2.13092277 71066
COSMOS 2459 (731)       
1 36400U 10007A   19030.90266241 -.00000023  00000-0  10000-3 0  9994
2 36400  65.7008  44.7645 0026911 345.5077 231.4472  2.13102160 69409
COSMOS 2461 (735)       
1 36401U 10007B   19030.50144351 -.00000024  00000-0  10000-3 0  9999
2 36401  65.6924  44.7497 0004492  49.2580 130.4391  2.13102062 69395
COSMOS 2460 (732)       
1 36402U 10007C   19030.67873198 -.00000024  00000-0  10000-3 0  9996
2 36402  65.6836  44.7102 0002576 275.6829  80.2279  2.13101587 69391
COSMOS 2464 (736)       
1 37139U 10041C   19029.63057661 -.00000016  00000-0  00000-0 0  9992
2 37139  64.3870 283.4392 0026485  12.7061 206.1318  2.13097583 65444
COSMOS 2471 (701K)      
1 37372U 11009A   19030.70866780 -.00000023  00000-0  00000-0 0  9994
2 37372  65.6799  44.6533 0010186 238.6616 289.1147  2.13107622 61675
COSMOS 2474 (742)       
1 37829U 11055A   19031.00465902 -.00000001  00000-0  00000+0 0  9992
2 37829  64.5167 164.1277 0006975 238.2485 117.3678  2.13101842 57048
COSMOS 2476 (744)       
1 37867U 11064A   19031.28855113 -.00000004  00000-0  00000+0 0  9994
2 37867  64.4975 164.1747 0017002 236.5029  23.0013  2.13101917 56404
COSMOS 2477 (745)       
1 37868U 11064B   19030.64682631  .00000004  00000-0  00000+0 0  9996
2 37868  64.5061 164.2476 0014768 237.2795  68.7001  2.13101724 56348
COSMOS 2475 (743)       
1 37869U 11064C   19030.61947598  .00000004  00000-0  00000+0 0  9990
2 37869  64.5135 164.2456 0018512 264.8891 337.0804  2.13101974 56354
COSMOS 2485 (747)       
1 39155U 13019A   19030.75963602  .00000003  00000-0  00000+0 0  9990
2 39155  64.6664 164.3515 0017577 231.2273  27.3193  2.13101895 44866
COSMOS 2492 (754)       
1 39620U 14012A   19031.44889715 -.00000022  00000-0  10000-3 0  9997
2 39620  65.5739  44.5368 0015720 320.0736 142.2395  2.13103390 37832
COSMOS 2500 (755)       
1 40001U 14032A   19030.56198458 -.00000025  00000-0  00000+0 0  9991
2 40001  65.5150  44.5200 0007621 225.5913 138.0308  2.13102674 36038
COSMOS 2501 (702K)      
1 40315U 14075A   19030.54558219 -.00000010  00000-0  00000+0 0  9993
2 40315  64.1086 284.5374 0015084 209.2280 301.0914  2.13098481 32430
COSMOS 2514 (751)       
1 41330U 16008A   19030.75201135 -.00000025  00000-0  00000-0 0  9991
2 41330  65.3158  44.5103 0011222 227.2072 103.6006  2.13103180 23198
COSMOS 2516 (753)       
1 41554U 16032A   19030.45743675 -.00000011  00000-0  00000-0 0  9998
2 41554  64.3324 284.4688 0011137 223.0503 132.4771  2.13101696 20793
COSMOS 2522 (752)       
1 42939U 17055A   19031.03041961 -.00000005  00000-0  00000+0 0  9998
2 42939  64.5631 284.4822 0006919 258.0299  43.5414  2.13101977 10568
